NORAD_CAT_ID,OBJECT_NAME,OBJECT_TYPE,EPOCH,MEAN_MOTION,ECCENTRICITY,INCLINATION,RA_OF_ASC_NODE,ARG_OF_PERICENTER,MEAN_ANOMALY,BSTAR,MEAN_MOTION_DOT,MEAN_MOTION_DDOT,TLE_LINE0,TLE_LINE1,TLE_LINE2,SEMIMAJOR_AXIS,PERIOD,APOGEE,PERIGEE,DECAYED
55307.0,STARLINK-5288,PAYLOAD,2024-04-28 04:10:40,14.98333019,0.0003444,69.9982,280.4365,262.7133,97.3635,-1.3074e-05,-2.49e-06,0.0,0 STARLINK-5288,1 55307U 23010AQ  24119.17407666 -.00000249  00000-0 -13074-4 0  9996,2 55307  69.9982 280.4365 0003444 262.7133  97.3635 14.98333019 71510,6950.184,96.107,574.442,569.655,0.0
55307.0,STARLINK-5288,PAYLOAD,2024-04-28 12:11:21,14.98320304,0.0002985,69.9992,279.5947,269.6008,90.4809,-9.5731e-05,-1.235e-05,0.0,0 STARLINK-5288,1 55307U 23010AQ  24119.50788892 -.00001235  00000-0 -95731-4 0  9992,2 55307  69.9992 279.5947 0002985 269.6008  90.4809 14.98320304 71567,6950.223,96.108,574.163,570.013,0.0
55307.0,STARLINK-5288,PAYLOAD,2024-04-28 13:47:29,14.98320898,0.0002955,69.9993,279.4264,269.5715,90.5105,-8.586e-05,-1.117e-05,0.0,0 STARLINK-5288,1 55307U 23010AQ  24119.57464862 -.00001117  00000-0 -85860-4 0  9998,2 55307  69.9993 279.4264 0002955 269.5715  90.5105 14.98320898 71894,6950.221,96.108,574.14,570.032,0.0
55307.0,STARLINK-5288,PAYLOAD,2024-04-28 20:12:01,14.98323914,0.0002915,69.9992,278.7531,269.8611,90.2213,-4.7584e-05,-6.61e-06,0.0,0 STARLINK-5288,1 55307U 23010AQ  24119.84168674 -.00000661  00000-0 -47584-4 0  9994,2 55307  69.9992 278.7531 0002915 269.8611  90.2213 14.98323914 71930,6950.212,96.107,574.103,570.051,0.0
55307.0,STARLINK-5288,PAYLOAD,2024-04-29 04:12:41,14.98328754,0.0003019,69.9991,277.911,269.3874,90.6939,-2.2945e-05,-3.67e-06,0.0,0 STARLINK-5288,1 55307U 23010AQ  24120.17548336 -.00000367  00000-0 -22945-4 0  9996,2 55307  69.9991 277.9110 0003019 269.3874  90.6939 14.98328754 71661,6950.197,96.107,574.16,569.963,0.0
55307.0,STARLINK-5288,PAYLOAD,2024-04-29 13:49:29,14.98330451,0.0003042,69.9991,276.9011,269.5192,90.5619,7.1484e-05,7.6e-06,0.0,0 STARLINK-5288,1 55307U 23010AQ  24120.57604004  .00000760  00000-0  71484-4 0  9992,2 55307  69.9991 276.9011 0003042 269.5192  90.5619 14.98330451 72045,6950.191,96.107,574.171,569.942,0.0
55307.0,STARLINK-5288,PAYLOAD,2024-04-29 20:14:01,14.98335367,0.0002987,69.9991,276.2276,268.1174,91.9643,0.00010313,1.138e-05,0.0,0 STARLINK-5288,1 55307U 23010AQ  24120.84307588  .00001138  00000-0  10313-3 0  9992,2 55307  69.9991 276.2276 0002987 268.1174  91.9643 14.98335367 71764,6950.176,96.107,574.117,569.965,0.0
55307.0,STARLINK-5288,PAYLOAD,2024-04-30 13:51:30,14.98327891,0.0002993,69.9994,274.3759,270.9837,89.0979,0.00015788,1.791e-05,0.0,0 STARLINK-5288,1 55307U 23010AQ  24121.57743873  .00001791  00000-0  15788-3 0  9990,2 55307  69.9994 274.3759 0002993 270.9837  89.0979 14.98327891 71871,6950.199,96.107,574.145,569.984,0.0
55307.0,STARLINK-5288,PAYLOAD,2024-04-30 20:16:02,14.98332496,0.0003017,69.9995,273.7026,271.0338,89.0475,0.00014652,1.656e-05,0.0,0 STARLINK-5288,1 55307U 23010AQ  24121.84447619  .00001656  00000-0  14652-3 0  9998,2 55307  69.9995 273.7026 0003017 271.0338  89.0475 14.98332496 72237,6950.185,96.107,574.147,569.953,0.0
55307.0,STARLINK-5288,PAYLOAD,2024-05-01 09:05:07,14.98336838,0.0002931,69.9999,272.3561,271.2304,88.8519,4.1719e-05,4.05e-06,0.0,0 STARLINK-5288,1 55307U 23010AQ  24122.37855524  .00000405  00000-0  41719-4 0  9991,2 55307  69.9999 272.3561 0002931 271.2304  88.8519 14.98336838 72318,6950.172,96.107,574.074,570.0,0.0
55307.0,STARLINK-5288,PAYLOAD,2024-05-02 12:19:24,14.98330804,0.0002984,69.9999,269.495,268.7532,91.3286,-4.0424e-05,-5.75e-06,0.0,0 STARLINK-5288,1 55307U 23010AQ  24123.51347693 -.00000575  00000-0 -40424-4 0  9993,2 55307  69.9999 269.4950 0002984 268.7532  91.3286 14.98330804 72169,6950.19,96.107,574.129,569.981,0.0
55307.0,STARLINK-5288,PAYLOAD,2024-05-02 13:55:32,14.9833057,0.0002986,69.9998,269.3267,268.552,91.5297,-4.31e-05,-6.07e-06,0.0,0 STARLINK-5288,1 55307U 23010AQ  24123.58023703 -.00000607  00000-0 -43100-4 0  9993,2 55307  69.9998 269.3267 0002986 268.5520  91.5297 14.98330570 72495,6950.191,96.107,574.131,569.981,0.0
55307.0,STARLINK-5288,PAYLOAD,2024-05-03 13:57:32,14.98334483,0.0003227,69.9988,266.8004,269.7145,90.3645,3.9252e-05,3.75e-06,0.0,0 STARLINK-5288,1 55307U 23010AQ  24124.58163000  .00000375  00000-0  39252-4 0  9992,2 55307  69.9988 266.8004 0003227 269.7145  90.3645 14.98334483 72323,6950.179,96.107,574.287,569.801,0.0
55307.0,STARLINK-5288,PAYLOAD,2024-05-03 20:22:04,14.98340492,0.0003072,69.9993,266.1276,268.3127,91.768,9.8299e-05,1.08e-05,0.0,0 STARLINK-5288,1 55307U 23010AQ  24124.84866332  .00001080  00000-0  98299-4 0  9999,2 55307  69.9993 266.1276 0003072 268.3127  91.7680 14.98340492 72686,6950.16,96.106,574.161,569.89,0.0
55307.0,STARLINK-5288,PAYLOAD,2024-05-04 02:46:37,14.98323877,0.0002195,70.0007,265.4531,251.5745,108.5176,7.9698e-05,8.58e-06,0.0,0 STARLINK-5288,1 55307U 23010AQ  24125.11571308  .00000858  00000-0  79698-4 0  9990,2 55307  70.0007 265.4531 0002195 251.5745 108.5176 14.98323877 72401,6950.212,96.107,573.602,570.551,0.0
55307.0,STARLINK-5288,PAYLOAD,2024-05-04 12:23:26,14.98317008,0.0002358,70.0001,264.4431,253.766,106.324,-4.2214e-06,-1.43e-06,0.0,0 STARLINK-5288,1 55307U 23010AQ  24125.51628152 -.00000143  00000-0 -42214-5 0  9998,2 55307  70.0001 264.4431 0002358 253.7660 106.3240 14.98317008 72467,6950.233,96.108,573.737,570.459,0.0
55307.0,STARLINK-5288,PAYLOAD,2024-05-05 02:48:39,14.98322028,0.0003195,70.0001,262.9284,265.4641,94.6153,1.854e-05,1.28e-06,0.0,0 STARLINK-5288,1 55307U 23010AQ  24126.11712008  .00000128  00000-0  18540-4 0  9994,2 55307  70.0001 262.9284 0003195 265.4641  94.6153 14.98322028 72555,6950.218,96.108,574.303,569.862,0.0
55307.0,STARLINK-5288,PAYLOAD,2024-05-05 12:25:27,14.98332073,0.0003104,69.9994,261.9191,271.7014,88.379,1.0973e-05,3.8e-07,0.0,0 STARLINK-5288,1 55307U 23010AQ  24126.51767499  .00000038  00000-0  10973-4 0  9994,2 55307  69.9994 261.9191 0003104 271.7014  88.3790 14.98332073 72618,6950.186,96.107,574.209,569.894,0.0
55307.0,STARLINK-5288,PAYLOAD,2024-05-05 14:01:35,14.98332747,0.0003066,69.9995,261.7508,271.4572,88.6236,9.6114e-06,2.2e-07,0.0,0 STARLINK-5288,1 55307U 23010AQ  24126.58443464  .00000022  00000-0  96114-5 0  9999,2 55307  69.9995 261.7508 0003066 271.4572  88.6236 14.98332747 72944,6950.184,96.107,574.18,569.918,0.0
55307.0,STARLINK-5288,PAYLOAD,2024-05-05 18:49:58,14.98337892,0.0003046,69.9996,261.2465,270.3677,89.7133,4.375e-05,4.29e-06,0.0,0 STARLINK-5288,1 55307U 23010AQ  24126.78471008  .00000429  00000-0  43750-4 0  9994,2 55307  69.9996 261.2465 0003046 270.3677  89.7133 14.98337892 72971,6950.168,96.106,574.151,569.916,0.0
55307.0,STARLINK-5288,PAYLOAD,2024-05-06 12:27:28,14.98323316,0.0003045,69.9998,259.3948,272.7822,87.2988,0.00013485,1.516e-05,0.0,0 STARLINK-5288,1 55307U 23010AQ  24127.51907783  .00001516  00000-0  13485-3 0  9999,2 55307  69.9998 259.3948 0003045 272.7822  87.2988 14.98323316 72768,6950.214,96.107,574.195,569.962,0.0
55307.0,STARLINK-5288,PAYLOAD,2024-05-06 14:03:36,14.98324133,0.000304,69.9998,259.2265,272.7902,87.2909,0.00014079,1.587e-05,0.0,0 STARLINK-5288,1 55307U 23010AQ  24127.58583750  .00001587  00000-0  14079-3 0  9998,2 55307  69.9998 259.2265 0003040 272.7902  87.2909 14.98324133 73091,6950.211,96.107,574.189,569.963,0.0
55307.0,STARLINK-5288,PAYLOAD,2024-05-06 18:52:00,14.9833207,0.0003018,69.9999,258.7215,272.5831,87.4983,0.00018758,2.146e-05,0.0,0 STARLINK-5288,1 55307U 23010AQ  24127.78611150  .00002146  00000-0  18758-3 0  9996,2 55307  69.9999 258.7215 0003018 272.5831  87.4983 14.98332070 72806,6950.186,96.107,574.149,569.954,0.0
55307.0,STARLINK-5288,PAYLOAD,2024-05-07 12:29:29,14.98330075,0.0002835,70.0005,256.87,274.3048,85.7787,-3.4275e-05,-5.02e-06,0.0,0 STARLINK-5288,1 55307U 23010AQ  24128.52047896 -.00000502  00000-0 -34275-4 0  9998,2 55307  70.0005 256.8700 0002835 274.3048  85.7787 14.98330075 72919,6950.193,96.107,574.028,570.087,0.0
55307.0,STARLINK-5288,PAYLOAD,2024-05-07 14:05:37,14.98329659,0.000284,70.0004,256.7017,274.2523,85.8312,-3.7922e-05,-5.45e-06,0.0,0 STARLINK-5288,1 55307U 23010AQ  24128.58723929 -.00000545  00000-0 -37922-4 0  9991,2 55307  70.0004 256.7017 0002840 274.2523  85.8312 14.98329659 73249,6950.194,96.107,574.033,570.085,0.0
55307.0,STARLINK-5288,PAYLOAD,2024-05-07 18:54:01,14.98345008,0.0002733,70.0005,256.1967,273.537,86.5477,-0.00021127,-2.614e-05,0.0,0 STARLINK-5288,1 55307U 23010AQ  24128.78751259 -.00002614  00000-0 -21127-3 0  9998,2 55307  70.0005 256.1967 0002733 273.5370  86.5477 14.98345008 72954,6950.146,96.106,573.911,570.112,0.0
55307.0,STARLINK-5288,PAYLOAD,2024-05-08 01:18:33,14.98332337,0.0002846,70.0004,255.524,270.3759,89.7074,9.7833e-06,2.4e-07,0.0,0 STARLINK-5288,1 55307U 23010AQ  24129.05455501  .00000024  00000-0  97833-5 0  9990,2 55307  70.0004 255.5240 0002846 270.3759  89.7074 14.98332337 72994,6950.186,96.107,574.029,570.073,0.0
55307.0,STARLINK-5288,PAYLOAD,2024-05-08 14:07:37,14.98334237,0.0002924,69.9999,254.1771,270.2948,89.7876,4.5044e-05,4.45e-06,0.0,0 STARLINK-5288,1 55307U 23010AQ  24129.58863220  .00000445  00000-0  45044-4 0  9992,2 55307  69.9999 254.1771 0002924 270.2948  89.7876 14.98334237 73390,6950.18,96.107,574.077,570.013,0.0
55307.0,STARLINK-5288,PAYLOAD,2024-05-08 17:19:53,14.98337276,0.0002777,70.0002,253.8405,268.0084,92.0757,9.5818e-05,1.051e-05,0.0,0 STARLINK-5288,1 55307U 23010AQ  24129.72214852  .00001051  00000-0  95818-4 0  9997,2 55307  70.0002 253.8405 0002777 268.0084  92.0757 14.98337276 73414,6950.17,96.107,573.965,570.105,0.0
55307.0,STARLINK-5288,PAYLOAD,2024-05-09 01:20:33,14.98336727,0.0002931,70.0001,252.9985,274.01,86.0724,2.9893e-05,2.64e-06,0.0,0 STARLINK-5288,1 55307U 23010AQ  24130.05594876  .00000264  00000-0  29893-4 0  9997,2 55307  70.0001 252.9985 0002931 274.0100  86.0724 14.98336727 73141,6950.172,96.107,574.074,570.0,0.0
